STARLINK-4621           
1 53676U 22105AE  26073.59946712  .00001519  00000+0  12280-3 0  9999
2 53676  97.6010 315.0159 0003140  39.3399 320.8053 15.01262125193975
SHERPA-LTC2             
1 53754U 22107BG  26072.52982336  .00003777  00000+0  20320-3 0  9994
2 53754  53.2352 264.9363 0397905 319.0223  38.1467 14.68559277188484
CENTISPACE-1 S3         
1 53757U 22108A   26073.53887882  .00000506  00000+0  14034-3 0  9992
2 53757  53.5318  86.6047 0010847  92.7832 267.4385 14.61137584187692
CENTISPACE-1 S4         
1 53758U 22108B   26073.56642964  .00000658  00000+0  16861-3 0  9994
2 53758  53.5294  84.4489 0010302  81.6652 278.5491 14.61788477187723
BLUEWALKER-3            
1 53807U 22111AL  26073.41717520  .00004640  00000+0  13596-3 0  9995
2 53807  53.2291 118.5163 0004544 243.2010 116.8530 15.37206654195627
YUNHAI-1 03             
1 53877U 22115A   26073.62538103  .00000379  00000+0  15558-3 0  9992
2 53877  98.5537  72.9811 0004224 340.5662  19.5360 14.32649695181974
CENTISPACE-1 S5         
1 54020U 22126A   26073.58708750  .00001281  00000+0  28559-3 0  9995
2 54020  54.9981 231.4639 0011277 203.6085 156.4393 14.62819465183198
CENTISPACE-1 S6         
1 54021U 22126B   26073.60308848  .00000933  00000+0  22103-3 0  9995
2 54021  54.9984 232.8385 0013050 206.2071 153.8263 14.62140146183167
OTB-3-GAZELLE           
1 54023U 22127A   26073.52644752  .00000209  00000+0  75913-4 0  9990
2 54023  98.3913  66.6922 0014264 112.2152 248.0553 14.42637965180712
ASO-S                   
1 54029U 22129A   26073.57256830  .00000253  00000+0  73597-4 0  9994
2 54029  98.2779  80.0012 0014896  28.3052 331.8950 14.52015398181695
HJ-2E                   
1 54035U 22132A   26073.58844521  .00012460  00000+0  56248-3 0  9992
2 54035  97.3830  79.7582 0020154 345.9360  14.1312 15.20941144190035
COSMOS 2561             
1 54109U 22137A   26071.99797426  .00015220  00000+0  28048-3 0  9997
2 54109  96.9318 134.6940 0010366  29.4823 330.7011 15.49169367191443
GONETS-M 23             
1 54150U 22139A   26073.59841742  .00000044  00000+0  24575-3 0  9993
2 54150  82.5055  47.0649 0022685  68.4994 291.8501 12.42886722153899
GONETS-M 24             
1 54151U 22139B   26073.57155345  .00000047  00000+0  26742-3 0  9990
2 54151  82.4973  46.2060 0017918  78.4387 281.8703 12.42887316153899
GONETS-M 25             
1 54152U 22139C   26073.55788816  .00000042  00000+0  23143-3 0  9991
2 54152  82.5037  46.8499 0021841  77.0016 283.3501 12.42886590153894
SKIF-D                  
1 54153U 22139D   26065.12976264  .00000025  00000+0  00000+0 0  9996
2 54153  89.9562  96.7047 0007353 235.7019 124.2989  5.00429106 58956
MATS                    
1 54227U 22147A   26073.57397770  .00004113  00000+0  29600-3 0  9997
2 54227  97.6827  75.6244 0013347 153.7399 206.4506 15.04704298183537
