[{"OBJECT_NAME":"STARLINK-4621","OBJECT_ID":"2022-105AE","EPOCH":"2026-03-14T14:23:13.959168","MEAN_MOTION":15.01262125,"ECCENTRICITY":0.00031401,"INCLINATION":97.601,"RA_OF_ASC_NODE":315.0159,"ARG_OF_PERICENTER":39.3399,"MEAN_ANOMALY":320.8053,"EPHEMERIS_TYPE":0,"CLASSIFICATION_TYPE":"U","NORAD_CAT_ID":53676,"ELEMENT_SET_NO":999,"REV_AT_EPOCH":19397,"BSTAR":0.00012279513,"MEAN_MOTION_DOT":1.519e-5,"MEAN_MOTION_DDOT":0},{"OBJECT_NAME":"SHERPA-LTC2","OBJECT_ID":"2022-107BG","EPOCH":"2026-03-13T12:42:56.738304","MEAN_MOTION":14.68559277,"ECCENTRICITY":0.03979056,"INCLINATION":53.2352,"RA_OF_ASC_NODE":264.9363,"ARG_OF_PERICENTER":319.0223,"MEAN_ANOMALY":38.1467,"EPHEMERIS_TYPE":0,"CLASSIFICATION_TYPE":"U","NORAD_CAT_ID":53754,"ELEMENT_SET_NO":999,"REV_AT_EPOCH":18848,"BSTAR":0.00020320333,"MEAN_MOTION_DOT":3.777e-5,"MEAN_MOTION_DDOT":0},{"OBJECT_NAME":"CENTISPACE-1 S3","OBJECT_ID":"2022-108A","EPOCH":"2026-03-14T12:55:59.130048","MEAN_MOTION":14.61137584,"ECCENTRICITY":0.0010847,"INCLINATION":53.5318,"RA_OF_ASC_NODE":86.6047,"ARG_OF_PERICENTER":92.7832,"MEAN_ANOMALY":267.4385,"EPHEMERIS_TYPE":0,"CLASSIFICATION_TYPE":"U","NORAD_CAT_ID":53757,"ELEMENT_SET_NO":999,"REV_AT_EPOCH":18769,"BSTAR":0.000140343,"MEAN_MOTION_DOT":5.06e-6,"MEAN_MOTION_DDOT":0},{"OBJECT_NAME":"CENTISPACE-1 S4","OBJECT_ID":"2022-108B","EPOCH":"2026-03-14T13:35:39.520896","MEAN_MOTION":14.61788477,"ECCENTRICITY":0.00103029,"INCLINATION":53.5294,"RA_OF_ASC_NODE":84.4489,"ARG_OF_PERICENTER":81.6652,"MEAN_ANOMALY":278.5491,"EPHEMERIS_TYPE":0,"CLASSIFICATION_TYPE":"U","NORAD_CAT_ID":53758,"ELEMENT_SET_NO":999,"REV_AT_EPOCH":18772,"BSTAR":0.00016861424,"MEAN_MOTION_DOT":6.58e-6,"MEAN_MOTION_DDOT":0},{"OBJECT_NAME":"BLUEWALKER-3","OBJECT_ID":"2022-111AL","EPOCH":"2026-03-14T10:00:43.937280","MEAN_MOTION":15.37206654,"ECCENTRICITY":0.00045441,"INCLINATION":53.2291,"RA_OF_ASC_NODE":118.5163,"ARG_OF_PERICENTER":243.201,"MEAN_ANOMALY":116.853,"EPHEMERIS_TYPE":0,"CLASSIFICATION_TYPE":"U","NORAD_CAT_ID":53807,"ELEMENT_SET_NO":999,"REV_AT_EPOCH":19562,"BSTAR":0.0001359633,"MEAN_MOTION_DOT":4.64e-5,"MEAN_MOTION_DDOT":0},{"OBJECT_NAME":"YUNHAI-1 03","OBJECT_ID":"2022-115A","EPOCH":"2026-03-14T15:00:32.920992","MEAN_MOTION":14.32649695,"ECCENTRICITY":0.00042241,"INCLINATION":98.5537,"RA_OF_ASC_NODE":72.9811,"ARG_OF_PERICENTER":340.5662,"MEAN_ANOMALY":19.536,"EPHEMERIS_TYPE":0,"CLASSIFICATION_TYPE":"U","NORAD_CAT_ID":53877,"ELEMENT_SET_NO":999,"REV_AT_EPOCH":18197,"BSTAR":0.0001555815,"MEAN_MOTION_DOT":3.79e-6,"MEAN_MOTION_DDOT":0},{"OBJECT_NAME":"CENTISPACE-1 S5","OBJECT_ID":"2022-126A","EPOCH":"2026-03-14T14:05:24.360000","MEAN_MOTION":14.62819465,"ECCENTRICITY":0.00112772,"INCLINATION":54.9981,"RA_OF_ASC_NODE":231.4639,"ARG_OF_PERICENTER":203.6085,"MEAN_ANOMALY":156.4393,"EPHEMERIS_TYPE":0,"CLASSIFICATION_TYPE":"U","NORAD_CAT_ID":54020,"ELEMENT_SET_NO":999,"REV_AT_EPOCH":18319,"BSTAR":0.00028558703,"MEAN_MOTION_DOT":1.281e-5,"MEAN_MOTION_DDOT":0},{"OBJECT_NAME":"CENTISPACE-1 S6","OBJECT_ID":"2022-126B","EPOCH":"2026-03-14T14:28:26.844672","MEAN_MOTION":14.62140146,"ECCENTRICITY":0.00130508,"INCLINATION":54.9984,"RA_OF_ASC_NODE":232.8385,"ARG_OF_PERICENTER":206.2071,"MEAN_ANOMALY":153.8263,"EPHEMERIS_TYPE":0,"CLASSIFICATION_TYPE":"U","NORAD_CAT_ID":54021,"ELEMENT_SET_NO":999,"REV_AT_EPOCH":18316,"BSTAR":0.00022103248,"MEAN_MOTION_DOT":9.33e-6,"MEAN_MOTION_DDOT":0},{"OBJECT_NAME":"OTB-3-GAZELLE","OBJECT_ID":"2022-127A","EPOCH":"2026-03-14T12:38:05.065728","MEAN_MOTION":14.42637965,"ECCENTRICITY":0.00142644,"INCLINATION":98.3913,"RA_OF_ASC_NODE":66.6922,"ARG_OF_PERICENTER":112.2152,"MEAN_ANOMALY":248.0553,"EPHEMERIS_TYPE":0,"CLASSIFICATION_TYPE":"U","NORAD_CAT_ID":54023,"ELEMENT_SET_NO":999,"REV_AT_EPOCH":18071,"BSTAR":7.5912654e-5,"MEAN_MOTION_DOT":2.09e-6,"MEAN_MOTION_DDOT":0},{"OBJECT_NAME":"ASO-S","OBJECT_ID":"2022-129A","EPOCH":"2026-03-14T13:44:29.901120","MEAN_MOTION":14.52015398,"ECCENTRICITY":0.00148965,"INCLINATION":98.2779,"RA_OF_ASC_NODE":80.0012,"ARG_OF_PERICENTER":28.3052,"MEAN_ANOMALY":331.895,"EPHEMERIS_TYPE":0,"CLASSIFICATION_TYPE":"U","NORAD_CAT_ID":54029,"ELEMENT_SET_NO":999,"REV_AT_EPOCH":18169,"BSTAR":7.3597055e-5,"MEAN_MOTION_DOT":2.53e-6,"MEAN_MOTION_DDOT":0},{"OBJECT_NAME":"HJ-2E","OBJECT_ID":"2022-132A","EPOCH":"2026-03-14T14:07:21.666144","MEAN_MOTION":15.20941144,"ECCENTRICITY":0.00201549,"INCLINATION":97.383,"RA_OF_ASC_NODE":79.7582,"ARG_OF_PERICENTER":345.936,"MEAN_ANOMALY":14.1312,"EPHEMERIS_TYPE":0,"CLASSIFICATION_TYPE":"U","NORAD_CAT_ID":54035,"ELEMENT_SET_NO":999,"REV_AT_EPOCH":19003,"BSTAR":0.00056247725,"MEAN_MOTION_DOT":0.0001246,"MEAN_MOTION_DDOT":0},{"OBJECT_NAME":"COSMOS 2561","OBJECT_ID":"2022-137A","EPOCH":"2026-03-12T23:57:04.976064","MEAN_MOTION":15.49169367,"ECCENTRICITY":0.0010366,"INCLINATION":96.9318,"RA_OF_ASC_NODE":134.694,"ARG_OF_PERICENTER":29.4823,"MEAN_ANOMALY":330.7011,"EPHEMERIS_TYPE":0,"CLASSIFICATION_TYPE":"U","NORAD_CAT_ID":54109,"ELEMENT_SET_NO":999,"REV_AT_EPOCH":19144,"BSTAR":0.00028048,"MEAN_MOTION_DOT":0.0001522,"MEAN_MOTION_DDOT":0},{"OBJECT_NAME":"GONETS-M 23","OBJECT_ID":"2022-139A","EPOCH":"2026-03-14T14:21:43.265088","MEAN_MOTION":12.42886722,"ECCENTRICITY":0.00226856,"INCLINATION":82.5055,"RA_OF_ASC_NODE":47.0649,"ARG_OF_PERICENTER":68.4994,"MEAN_ANOMALY":291.8501,"EPHEMERIS_TYPE":0,"CLASSIFICATION_TYPE":"U","NORAD_CAT_ID":54150,"ELEMENT_SET_NO":999,"REV_AT_EPOCH":15389,"BSTAR":0.00024574573,"MEAN_MOTION_DOT":4.4e-7,"MEAN_MOTION_DDOT":0},{"OBJECT_NAME":"GONETS-M 24","OBJECT_ID":"2022-139B","EPOCH":"2026-03-14T13:43:02.218080","MEAN_MOTION":12.42887316,"ECCENTRICITY":0.00179183,"INCLINATION":82.4973,"RA_OF_ASC_NODE":46.206,"ARG_OF_PERICENTER":78.4387,"MEAN_ANOMALY":281.8703,"EPHEMERIS_TYPE":0,"CLASSIFICATION_TYPE":"U","NORAD_CAT_ID":54151,"ELEMENT_SET_NO":999,"REV_AT_EPOCH":15389,"BSTAR":0.00026742306,"MEAN_MOTION_DOT":4.7e-7,"MEAN_MOTION_DDOT":0},{"OBJECT_NAME":"GONETS-M 25","OBJECT_ID":"2022-139C","EPOCH":"2026-03-14T13:23:21.537024","MEAN_MOTION":12.4288659,"ECCENTRICITY":0.00218419,"INCLINATION":82.5037,"RA_OF_ASC_NODE":46.8499,"ARG_OF_PERICENTER":77.0016,"MEAN_ANOMALY":283.3501,"EPHEMERIS_TYPE":0,"CLASSIFICATION_TYPE":"U","NORAD_CAT_ID":54152,"ELEMENT_SET_NO":999,"REV_AT_EPOCH":15389,"BSTAR":0.00023142688,"MEAN_MOTION_DOT":4.2e-7,"MEAN_MOTION_DDOT":0},{"OBJECT_NAME":"SKIF-D","OBJECT_ID":"2022-139D","EPOCH":"2026-03-06T03:06:51.492096","MEAN_MOTION":5.00429106,"ECCENTRICITY":0.00073531,"INCLINATION":89.9562,"RA_OF_ASC_NODE":96.7047,"ARG_OF_PERICENTER":235.7019,"MEAN_ANOMALY":124.2989,"EPHEMERIS_TYPE":0,"CLASSIFICATION_TYPE":"U","NORAD_CAT_ID":54153,"ELEMENT_SET_NO":999,"REV_AT_EPOCH":5895,"BSTAR":0,"MEAN_MOTION_DOT":2.5e-7,"MEAN_MOTION_DDOT":0},{"OBJECT_NAME":"MATS","OBJECT_ID":"2022-147A","EPOCH":"2026-03-14T13:46:31.673280","MEAN_MOTION":15.04704298,"ECCENTRICITY":0.00133474,"INCLINATION":97.6827,"RA_OF_ASC_NODE":75.6244,"ARG_OF_PERICENTER":153.7399,"MEAN_ANOMALY":206.4506,"EPHEMERIS_TYPE":0,"CLASSIFICATION_TYPE":"U","NORAD_CAT_ID":54227,"ELEMENT_SET_NO":999,"REV_AT_EPOCH":18353,"BSTAR":0.00029599869,"MEAN_MOTION_DOT":4.113e-5,"MEAN_MOTION_DDOT":0}]
